OBJECT_NAME,OBJECT_ID,EPOCH,MEAN_MOTION,ECCENTRICITY,INCLINATION,RA_OF_ASC_NODE,ARG_OF_PERICENTER,MEAN_ANOMALY,EPHEMERIS_TYPE,CLASSIFICATION_TYPE,NORAD_CAT_ID,ELEMENT_SET_NO,REV_AT_EPOCH,BSTAR,MEAN_MOTION_DOT,MEAN_MOTION_DDOT
COSMOS 2058,1990-010A,2026-07-13T05:00:22.524192,15.12150324,.00078804,82.4672,283.6920,258.2666,101.7681,0,U,20465,999,96120,.88938936E-4,.1563E-4,0
SL-14 R/B,1990-010B,2026-07-13T06:26:12.137856,14.83662413,.0018312,82.5034,149.4519,244.1116,115.8212,0,U,20466,999,94710,.20767207E-4,.196E-5,0
SL-14 R/B,1990-018B,2026-07-13T04:54:20.814048,14.82233335,.00171744,82.5219,105.7911,43.0004,317.2549,0,U,20511,999,94117,.23597309E-4,.212E-5,0
HST,1990-037B,2026-07-13T06:49:09.806592,15.31049183,.00022262,28.4725,262.1734,86.2676,273.8175,0,U,20580,999,79257,.11831531E-3,.3883E-4,0
SL-16 R/B,1990-046B,2026-07-13T00:47:52.171872,14.15023667,.00124416,70.9983,34.6648,118.1378,242.1003,0,U,20625,999,86612,.11033673E-3,.166E-5,0
COSMOS 2084,1990-055A,2026-07-13T05:16:27.863616,15.06219713,.00078204,62.7886,267.2310,316.2597,43.7884,0,U,20663,999,95522,.78361404E-4,.952E-5,0
SL-6 R/B(2),1990-055D,2026-07-13T07:27:57.358656,15.04083364,.00448627,62.7802,186.4731,8.7873,351.4002,0,U,20666,999,95708,.8822517E-4,.1044E-4,0
SL-8 R/B,1990-078B,2026-07-13T06:23:08.194848,14.93533485,.03438245,82.9030,138.0578,310.1059,47.0484,0,U,20775,999,82801,.35124688E-3,.12397E-3,0
SL-8 R/B,1991-006B,2026-07-13T02:05:29.538816,13.77508876,.00235376,82.9411,76.7648,46.1489,114.9816,0,U,21088,999,78133,.63856873E-4,.79E-6,0
OKEAN-3,1991-039A,2026-07-12T14:19:16.686624,15.05425475,.00122133,82.5139,215.7386,264.5319,95.4515,0,U,21397,999,88382,.10633595E-3,.1556E-4,0
COSMOS 2151,1991-042A,2026-07-13T06:25:39.794016,15.00510303,.00121504,82.4979,322.5107,2.0695,358.0577,0,U,21422,999,88202,.50993917E-4,.671E-5,0
SL-14 R/B,1991-042B,2026-07-13T03:34:29.976384,14.81917402,.0016798,82.4934,102.5505,183.6324,176.4771,0,U,21423,999,87165,.2036614E-4,.185E-5,0
ERS-1,1991-050A,2026-07-13T02:11:06.115200,14.39532110,.00317794,98.7795,215.4215,188.0207,172.0476,0,U,21574,999,83377,.63482008E-4,.153E-5,0
ARIANE 40 R/B,1991-050F,2026-07-13T02:55:17.222304,14.42971235,.00042318,98.1863,241.5266,65.9959,294.1675,0,U,21610,999,83708,.51584286E-4,.131E-5,0
INTERCOSMOS 25,1991-086A,2026-07-13T00:42:31.824000,12.12239182,.14844638,82.6011,234.1716,206.5995,145.0883,0,U,21819,999,51187,.89799418E-4,.466E-5,0
SL-8 R/B,1992-008B,2026-07-12T22:24:33.376896,13.75983338,.00355358,82.9271,174.6446,142.7751,246.3179,0,U,21876,999,72664,.96077774E-4,.109E-5,0
SL-8 R/B,1992-020B,2026-07-13T02:43:29.836128,13.75550280,.00280279,82.9286,60.5973,309.6543,204.7125,0,U,21938,999,71837,.20994008E-4,.35E-6,0
USA 81,1992-023A,2026-07-12T23:33:55.246752,14.32404579,.00020881,85.0052,59.1167,65.7055,294.4355,0,U,21949,999,11272,.34784451E-4,.114E-5,0
COSMOS 2219,1992-076A,2026-07-13T03:37:40.825344,14.14109328,.00181379,71.0614,115.7964,0.6237,359.4905,0,U,22219,999,73611,-.74807049E-4,-.19E-5,0
SL-16 R/B,1992-076B,2026-07-13T05:09:45.789984,14.16876632,.00150204,71.0005,283.9526,264.6325,120.7702,0,U,22220,999,73961,.13396703E-3,.221E-5,0
COSMOS 2221,1992-080A,2026-07-13T06:45:50.868864,14.96600760,.00155928,82.5045,158.7633,126.0434,234.2236,0,U,22236,999,79957,.74038972E-4,.871E-5,0
SL-16 R/B,1992-093B,2026-07-13T04:16:28.851744,14.15466459,.00023645,71.0220,100.8298,139.8557,220.2741,0,U,22285,999,73091,-.77414123E-4,-.199E-5,0
COSMOS 2228,1992-094A,2026-07-13T05:05:08.104704,14.97672011,.00161962,82.5189,117.1154,236.3565,123.6113,0,U,22286,999,79484,.79634007E-4,.961E-5,0
SL-16 R/B,1993-016B,2026-07-13T07:15:17.653824,14.15311904,.00089168,71.0084,311.3564,141.4397,218.7364,0,U,22566,999,71994,.7428105E-4,.97E-6,0
COSMOS 2242,1993-024A,2026-07-13T07:36:27.590400,14.96981549,.0014557,82.5198,146.5436,239.6025,120.3760,0,U,22626,999,79918,.77342264E-4,.917E-5,0
SL-16 R/B,1993-059B,2026-07-13T06:02:27.237696,14.17249915,.00165483,70.9903,106.3392,11.4267,348.7229,0,U,22803,999,69732,-.90931594E-4,-.232E-5,0
ARIANE 40 R/B,1993-061H,2026-07-13T04:21:12.021696,14.32918102,.00094778,98.4808,260.4969,272.3235,87.6864,0,U,22830,999,71207,.44651745E-4,.79E-6,0
COSMOS 2278,1994-023A,2026-07-13T04:51:07.418880,14.14393300,.00097501,71.0525,272.4963,208.6350,151.4238,0,U,23087,999,66255,-.16571008E-4,-.79E-6,0
SL-16 R/B,1994-023B,2026-07-12T21:49:45.132960,14.15023948,.00014456,70.9982,167.9116,137.0066,223.1170,0,U,23088,999,66380,.24176352E-4,-.1E-7,0
SL-16 R/B,1994-074B,2026-07-13T01:03:14.999040,14.79523286,.00069852,97.6986,219.6865,160.7187,227.7465,0,U,23343,999,70578,.34439292E-4,.208E-5,0
